{"fetched_at":"2026-07-10T18:08:32.307Z","source":"https://celestrak.org/NORAD/elements/gp.php?NAME=SPACEMOBILE&FORMAT=JSON","constellation":"ast-spacemobile","records":[{"OBJECT_NAME":"SPACEMOBILE-003","OBJECT_ID":"2024-163A","EPOCH":"2026-07-10T03:40:05.852928","CLASSIFICATION_TYPE":"U","MEAN_MOTION":15.20788598,"ECCENTRICITY":0.00053194,"INCLINATION":52.9663,"RA_OF_ASC_NODE":203.8314,"ARG_OF_PERICENTER":179.8371,"MEAN_ANOMALY":180.2626,"EPHEMERIS_TYPE":0,"NORAD_CAT_ID":61045,"ELEMENT_SET_NO":999,"REV_AT_EPOCH":10126,"BSTAR":0.000034676467,"MEAN_MOTION_DOT":0.00000447,"MEAN_MOTION_DDOT":0},{"OBJECT_NAME":"SPACEMOBILE-005","OBJECT_ID":"2024-163B","EPOCH":"2026-07-09T17:48:29.962080","CLASSIFICATION_TYPE":"U","MEAN_MOTION":15.20763652,"ECCENTRICITY":0.00087506,"INCLINATION":52.9802,"RA_OF_ASC_NODE":205.6616,"ARG_OF_PERICENTER":178.6787,"MEAN_ANOMALY":181.4232,"EPHEMERIS_TYPE":0,"NORAD_CAT_ID":61046,"ELEMENT_SET_NO":999,"REV_AT_EPOCH":10119,"BSTAR":0.00021850555,"MEAN_MOTION_DOT":0.00004552,"MEAN_MOTION_DDOT":0},{"OBJECT_NAME":"SPACEMOBILE-001","OBJECT_ID":"2024-163C","EPOCH":"2026-07-10T01:39:25.476768","CLASSIFICATION_TYPE":"U","MEAN_MOTION":15.20815495,"ECCENTRICITY":0.00075534,"INCLINATION":52.9749,"RA_OF_ASC_NODE":203.8741,"ARG_OF_PERICENTER":178.7608,"MEAN_ANOMALY":181.3406,"EPHEMERIS_TYPE":0,"NORAD_CAT_ID":61047,"ELEMENT_SET_NO":999,"REV_AT_EPOCH":10124,"BSTAR":0.000037894656,"MEAN_MOTION_DOT":0.00000518,"MEAN_MOTION_DDOT":0},{"OBJECT_NAME":"SPACEMOBILE-002","OBJECT_ID":"2024-163D","EPOCH":"2026-07-10T06:00:14.177376","CLASSIFICATION_TYPE":"U","MEAN_MOTION":15.20865625,"ECCENTRICITY":0.0006595,"INCLINATION":52.9774,"RA_OF_ASC_NODE":203.0799,"ARG_OF_PERICENTER":177.9228,"MEAN_ANOMALY":182.1795,"EPHEMERIS_TYPE":0,"NORAD_CAT_ID":61048,"ELEMENT_SET_NO":999,"REV_AT_EPOCH":10127,"BSTAR":0.00028000536,"MEAN_MOTION_DOT":0.00005943,"MEAN_MOTION_DDOT":0},{"OBJECT_NAME":"SPACEMOBILE-004","OBJECT_ID":"2024-163E","EPOCH":"2026-07-09T13:48:46.986048","CLASSIFICATION_TYPE":"U","MEAN_MOTION":15.20814564,"ECCENTRICITY":0.00081135,"INCLINATION":52.9654,"RA_OF_ASC_NODE":205.9666,"ARG_OF_PERICENTER":207.5207,"MEAN_ANOMALY":152.5359,"EPHEMERIS_TYPE":0,"NORAD_CAT_ID":61049,"ELEMENT_SET_NO":999,"REV_AT_EPOCH":10117,"BSTAR":-0.00061664582,"MEAN_MOTION_DOT":-0.00014088,"MEAN_MOTION_DDOT":0},{"OBJECT_NAME":"SPACEMOBILE-001 DEB","OBJECT_ID":"2024-163F","EPOCH":"2026-07-09T15:30:21.696480","CLASSIFICATION_TYPE":"U","MEAN_MOTION":15.35316597,"ECCENTRICITY":0.00059376,"INCLINATION":52.9915,"RA_OF_ASC_NODE":173.6029,"ARG_OF_PERICENTER":231.3984,"MEAN_ANOMALY":128.6486,"EPHEMERIS_TYPE":0,"NORAD_CAT_ID":62369,"ELEMENT_SET_NO":999,"REV_AT_EPOCH":8995,"BSTAR":0.00019796004,"MEAN_MOTION_DOT":0.00006514,"MEAN_MOTION_DDOT":0},{"OBJECT_NAME":"SPACEMOBILE-002 DEB","OBJECT_ID":"2024-163G","EPOCH":"2026-07-10T07:13:06.999744","CLASSIFICATION_TYPE":"U","MEAN_MOTION":15.43693149,"ECCENTRICITY":0.00044927,"INCLINATION":52.9402,"RA_OF_ASC_NODE":154.9708,"ARG_OF_PERICENTER":267.6458,"MEAN_ANOMALY":92.4031,"EPHEMERIS_TYPE":0,"NORAD_CAT_ID":62370,"ELEMENT_SET_NO":999,"REV_AT_EPOCH":10193,"BSTAR":0.000366286,"MEAN_MOTION_DOT":0.00016405,"MEAN_MOTION_DDOT":0},{"OBJECT_NAME":"SPACEMOBILE-003 DEB","OBJECT_ID":"2024-163H","EPOCH":"2026-07-08T15:24:03.686112","CLASSIFICATION_TYPE":"U","MEAN_MOTION":15.41385961,"ECCENTRICITY":0.00056757,"INCLINATION":52.9682,"RA_OF_ASC_NODE":169.6526,"ARG_OF_PERICENTER":212.5674,"MEAN_ANOMALY":147.498,"EPHEMERIS_TYPE":0,"NORAD_CAT_ID":62371,"ELEMENT_SET_NO":999,"REV_AT_EPOCH":9519,"BSTAR":0.00034382737,"MEAN_MOTION_DOT":0.00014206,"MEAN_MOTION_DDOT":0},{"OBJECT_NAME":"SPACEMOBILE-004 DEB","OBJECT_ID":"2024-163J","EPOCH":"2026-07-10T06:41:22.284096","CLASSIFICATION_TYPE":"U","MEAN_MOTION":15.40670437,"ECCENTRICITY":0.0002842,"INCLINATION":52.9822,"RA_OF_ASC_NODE":161.5022,"ARG_OF_PERICENTER":241.7246,"MEAN_ANOMALY":118.347,"EPHEMERIS_TYPE":0,"NORAD_CAT_ID":62372,"ELEMENT_SET_NO":999,"REV_AT_EPOCH":9851,"BSTAR":0.00027467878,"MEAN_MOTION_DOT":0.00010988,"MEAN_MOTION_DDOT":0},{"OBJECT_NAME":"SPACEMOBILE-005 DEB","OBJECT_ID":"2024-163K","EPOCH":"2026-07-09T23:47:30.735744","CLASSIFICATION_TYPE":"U","MEAN_MOTION":15.34590181,"ECCENTRICITY":0.00058883,"INCLINATION":52.9723,"RA_OF_ASC_NODE":176.8636,"ARG_OF_PERICENTER":210.3831,"MEAN_ANOMALY":149.6829,"EPHEMERIS_TYPE":0,"NORAD_CAT_ID":62373,"ELEMENT_SET_NO":999,"REV_AT_EPOCH":10162,"BSTAR":0.00020017823,"MEAN_MOTION_DOT":0.00006434,"MEAN_MOTION_DDOT":0},{"OBJECT_NAME":"SPACEMOBILE-006","OBJECT_ID":"2025-309A","EPOCH":"2026-07-10T01:51:46.412064","CLASSIFICATION_TYPE":"U","MEAN_MOTION":15.18646763,"ECCENTRICITY":0.00104507,"INCLINATION":52.9939,"RA_OF_ASC_NODE":226.78,"ARG_OF_PERICENTER":198.4648,"MEAN_ANOMALY":161.5968,"EPHEMERIS_TYPE":0,"NORAD_CAT_ID":67232,"ELEMENT_SET_NO":999,"REV_AT_EPOCH":3007,"BSTAR":0.000024829687,"MEAN_MOTION_DOT":0.00000198,"MEAN_MOTION_DDOT":0},{"OBJECT_NAME":"SPACEMOBILE-008","OBJECT_ID":"2026-139A","EPOCH":"2026-07-09T23:59:35.858976","CLASSIFICATION_TYPE":"U","MEAN_MOTION":15.12797717,"ECCENTRICITY":0.00047862,"INCLINATION":52.994,"RA_OF_ASC_NODE":158.9953,"ARG_OF_PERICENTER":44.1815,"MEAN_ANOMALY":315.9557,"EPHEMERIS_TYPE":0,"NORAD_CAT_ID":69589,"ELEMENT_SET_NO":999,"REV_AT_EPOCH":343,"BSTAR":0.000035582335,"MEAN_MOTION_DOT":0.00000331,"MEAN_MOTION_DDOT":0},{"OBJECT_NAME":"SPACEMOBILE-009","OBJECT_ID":"2026-139B","EPOCH":"2026-07-09T08:10:28.974432","CLASSIFICATION_TYPE":"U","MEAN_MOTION":15.12690226,"ECCENTRICITY":0.00050087,"INCLINATION":52.9929,"RA_OF_ASC_NODE":161.9998,"ARG_OF_PERICENTER":38.0005,"MEAN_ANOMALY":322.1339,"EPHEMERIS_TYPE":0,"NORAD_CAT_ID":69590,"ELEMENT_SET_NO":999,"REV_AT_EPOCH":333,"BSTAR":0.00004037426,"MEAN_MOTION_DOT":0.00000414,"MEAN_MOTION_DDOT":0},{"OBJECT_NAME":"SPACEMOBILE-010","OBJECT_ID":"2026-139C","EPOCH":"2026-07-09T14:34:37.932672","CLASSIFICATION_TYPE":"U","MEAN_MOTION":15.12521495,"ECCENTRICITY":0.00049022,"INCLINATION":52.9935,"RA_OF_ASC_NODE":160.8181,"ARG_OF_PERICENTER":29.8087,"MEAN_ANOMALY":330.3183,"EPHEMERIS_TYPE":0,"NORAD_CAT_ID":69591,"ELEMENT_SET_NO":999,"REV_AT_EPOCH":338,"BSTAR":0.000033613821,"MEAN_MOTION_DOT":0.00000292,"MEAN_MOTION_DDOT":0}]}
